{
  "type": "FeatureCollection",
  "generator": "overpass-ide",
  "copyright": "The data included in this document is from www.openstreetmap.org. The data is made available under ODbL.",
  "timestamp": "2021-12-06T13:41:39Z",
  "features": [
    {
      "type": "Feature",
      "properties": {
        "@id": "node/256090183",
        "addr:conscriptionnumber": "2295",
        "addr:housenumber": "2295/26",
        "addr:postcode": "14800",
        "addr:street": "Kloknerova",
        "addr:streetnumber": "26",
        "amenity": "fire_station",
        "name": "Generální ředitelství HZS",
        "source:addr": "uir_adr",
        "uir_adr:ADRESA_KOD": "25713949"
      },
      "geometry": {
        "type": "Point",
        "coordinates": [
          14.4882644,
          50.0362817
        ]
      },
      "id": "node/256090183"
    },
    {
      "type": "Feature",
      "properties": {
        "@id": "node/256507969",
        "addr:city": "Praha",
        "addr:housenumber": "2021",
        "addr:postcode": "14800",
        "addr:street": "Krejnická",
        "email": "luci.kohoutova@seznam.cz",
        "name": "edera",
        "opening_hours": "Mo-Fr 10:00-18:30; Sa 09:00-13:30",
        "phone": "+420 774 332 808",
        "shop": "florist",
        "website": "http://kvetinarstvi-edera.cz/"
      },
      "geometry": {
        "type": "Point",
        "coordinates": [
          14.482315,
          50.0330873
        ]
      },
      "id": "node/256507969"
    },
    {
      "type": "Feature",
      "properties": {
        "@id": "node/296442534",
        "addr:conscriptionnumber": "254",
        "addr:housenumber": "254/50",
        "addr:postcode": "14900",
        "addr:street": "Starochodovská",
        "addr:streetnumber": "50",
        "source:addr": "uir_adr",
        "uir_adr:ADRESA_KOD": "21828784"
      },
      "geometry": {
        "type": "Point",
        "coordinates": [
          14.5044126,
          50.028825
        ]
      },
      "id": "node/296442534"
    },
    {
      "type": "Feature",
      "properties": {
        "@id": "node/296442767",
        "addr:conscriptionnumber": "534",
        "addr:housenumber": "534/2",
        "addr:postcode": "14900",
        "addr:street": "Rujanská",
        "addr:streetnumber": "2",
        "source:addr": "uir_adr",
        "uir_adr:ADRESA_KOD": "21831793"
      },
      "geometry": {
        "type": "Point",
        "coordinates": [
          14.5110693,
          50.0369056
        ]
      },
      "id": "node/296442767"
    },
    {
      "type": "Feature",
      "properties": {
        "@id": "node/296442793",
        "addr:conscriptionnumber": "721",
        "addr:housenumber": "721/24",
        "addr:postcode": "14900",
        "addr:street": "Donovalská",
        "addr:streetnumber": "24",
        "source:addr": "uir_adr",
        "uir_adr:ADRESA_KOD": "21833869"
      },
      "geometry": {
        "type": "Point",
        "coordinates": [
          14.5095157,
          50.0369234
        ]
      },
      "id": "node/296442793"
    },
    {
      "type": "Feature",
      "properties": {
        "@id": "node/296443009",
        "addr:conscriptionnumber": "1984",
        "addr:housenumber": "1984/8",
        "addr:postcode": "14800",
        "addr:street": "Dědinova",
        "addr:streetnumber": "8",
        "source:addr": "uir_adr",
        "uir_adr:ADRESA_KOD": "21845425"
      },
      "geometry": {
        "type": "Point",
        "coordinates": [
          14.4839151,
          50.0306222
        ]
      },
      "id": "node/296443009"
    },
    {
      "type": "Feature",
      "properties": {
        "@id": "node/296443118",
        "addr:conscriptionnumber": "218",
        "addr:housenumber": "218/9",
        "addr:postcode": "14900",
        "addr:street": "Švabinského",
        "addr:streetnumber": "9",
        "source:addr": "uir_adr",
        "uir_adr:ADRESA_KOD": "21828377"
      },
      "geometry": {
        "type": "Point",
        "coordinates": [
          14.4987033,
          50.0316352
        ]
      },
      "id": "node/296443118"
    },
    {
      "type": "Feature",
      "properties": {
        "@id": "node/296443197",
        "addr:conscriptionnumber": "268",
        "addr:housenumber": "268/67",
        "addr:postcode": "14900",
        "addr:street": "7. května",
        "addr:streetnumber": "67",
        "source:addr": "uir_adr",
        "uir_adr:ADRESA_KOD": "21828938"
      },
      "geometry": {
        "type": "Point",
        "coordinates": [
          14.4992162,
          50.0322066
        ]
      },
      "id": "node/296443197"
    },
    {
      "type": "Feature",
      "properties": {
        "@id": "node/296443353",
        "addr:conscriptionnumber": "1004",
        "addr:housenumber": "1004/6",
        "addr:postcode": "14900",
        "addr:street": "K remízku",
        "addr:streetnumber": "6",
        "source:addr": "uir_adr",
        "uir_adr:ADRESA_KOD": "21837031"
      },
      "geometry": {
        "type": "Point",
        "coordinates": [
          14.493516,
          50.0339738
        ]
      },
      "id": "node/296443353"
    },
    {
      "type": "Feature",
      "properties": {
        "@id": "node/296443391",
        "addr:conscriptionnumber": "1766",
        "addr:housenumber": "1766/46",
        "addr:postcode": "14900",
        "addr:street": "Jažlovická",
        "addr:streetnumber": "46",
        "source:addr": "uir_adr",
        "uir_adr:ADRESA_KOD": "21843236"
      },
      "geometry": {
        "type": "Point",
        "coordinates": [
          14.5256657,
          50.0276426
        ]
      },
      "id": "node/296443391"
    },
    {
      "type": "Feature",
      "properties": {
        "@id": "node/296443516",
        "addr:conscriptionnumber": "910",
        "addr:housenumber": "910/90",
        "addr:postcode": "14900",
        "addr:street": "Medkova",
        "addr:streetnumber": "90",
        "source:addr": "uir_adr",
        "uir_adr:ADRESA_KOD": "21835900"
      },
      "geometry": {
        "type": "Point",
        "coordinates": [
          14.5017647,
          50.0268952
        ]
      },
      "id": "node/296443516"
    },
    {
      "type": "Feature",
      "properties": {
        "@id": "node/296443611",
        "addr:conscriptionnumber": "729",
        "addr:housenumber": "729/8",
        "addr:postcode": "14900",
        "addr:street": "U nové dálnice",
        "addr:streetnumber": "8",
        "source:addr": "uir_adr",
        "uir_adr:ADRESA_KOD": "21833940"
      },
      "geometry": {
        "type": "Point",
        "coordinates": [
          14.4890107,
          50.0394033
        ]
      },
      "id": "node/296443611"
    },
    {
      "type": "Feature",
      "properties": {
        "@id": "node/296443671",
        "addr:conscriptionnumber": "617",
        "addr:housenumber": "617/4",
        "addr:place": "Chodov",
        "addr:postcode": "14100",
        "addr:street": "Chodovecké náměstí",
        "addr:streetnumber": "4",
        "ref:ruian:addr": "21832731"
      },
      "geometry": {
        "type": "Point",
        "coordinates": [
          14.4877343,
          50.044155
        ]
      },
      "id": "node/296443671"
    },
    {
      "type": "Feature",
      "properties": {
        "@id": "node/296443746",
        "addr:conscriptionnumber": "246",
        "addr:housenumber": "246/34",
        "addr:postcode": "14900",
        "addr:street": "Starochodovská",
        "addr:streetnumber": "34",
        "source:addr": "uir_adr",
        "uir_adr:ADRESA_KOD": "21828687"
      },
      "geometry": {
        "type": "Point",
        "coordinates": [
          14.5048823,
          50.0280042
        ]
      },
      "id": "node/296443746"
    },
    {
      "type": "Feature",
      "properties": {
        "@id": "node/296443772",
        "addr:conscriptionnumber": "923",
        "addr:housenumber": "923/66",
        "addr:postcode": "14900",
        "addr:street": "Švabinského",
        "addr:streetnumber": "66",
        "source:addr": "uir_adr",
        "uir_adr:ADRESA_KOD": "21836051"
      },
      "geometry": {
        "type": "Point",
        "coordinates": [
          14.5030728,
          50.0268378
        ]
      },
      "id": "node/296443772"
    },
    {
      "type": "Feature",
      "properties": {
        "@id": "node/296443921",
        "addr:conscriptionnumber": "2215",
        "addr:housenumber": "2215/4",
        "addr:place": "Chodov",
        "addr:postcode": "14800",
        "addr:street": "Kloknerova",
        "addr:streetnumber": "4",
        "ref:ruian:addr": "21847703"
      },
      "geometry": {
        "type": "Point",
        "coordinates": [
          14.4867003,
          50.0346468
        ]
      },
      "id": "node/296443921"
    },
    {
      "type": "Feature",
      "properties": {
        "@id": "node/296443941",
        "addr:conscriptionnumber": "282",
        "addr:housenumber": "282/60",
        "addr:postcode": "14900",
        "addr:street": "Švabinského",
        "addr:streetnumber": "60",
        "source:addr": "uir_adr",
        "uir_adr:ADRESA_KOD": "21829080"
      },
      "geometry": {
        "type": "Point",
        "coordinates": [
          14.5028031,
          50.0271136
        ]
      },
      "id": "node/296443941"
    },
    {
      "type": "Feature",
      "properties": {
        "@id": "node/296444031",
        "addr:conscriptionnumber": "433",
        "addr:housenumber": "433/2",
        "addr:postcode": "14900",
        "addr:street": "Donovalská",
        "addr:streetnumber": "2",
        "source:addr": "uir_adr",
        "uir_adr:ADRESA_KOD": "21830738"
      },
      "geometry": {
        "type": "Point",
        "coordinates": [
          14.5143424,
          50.036086
        ]
      },
      "id": "node/296444031"
    },
    {
      "type": "Feature",
      "properties": {
        "@id": "node/296444039",
        "addr:conscriptionnumber": "1483",
        "addr:housenumber": "1483/24",
        "addr:postcode": "14900",
        "addr:street": "Konstantinova",
        "addr:streetnumber": "24",
        "source:addr": "uir_adr",
        "uir_adr:ADRESA_KOD": "21840369"
      },
      "geometry": {
        "type": "Point",
        "coordinates": [
          14.5235705,
          50.0288679
        ]
      },
      "id": "node/296444039"
    },
    {
      "type": "Feature",
      "properties": {
        "@id": "node/296444866",
        "addr:city": "Praha",
        "addr:conscriptionnumber": "1781",
        "addr:country": "CZ",
        "addr:housenumber": "1781/4",
        "addr:place": "Chodov",
        "addr:postcode": "14900",
        "addr:street": "Blažimská",
        "addr:streetnumber": "4",
        "addr:suburb": "Praha 11",
        "ref:ruian:addr": "21843384",
        "source:addr": "cuzk:ruian"
      },
      "geometry": {
        "type": "Point",
        "coordinates": [
          14.4962108,
          50.0419513
        ]
      },
      "id": "node/296444866"
    },
    {
      "type": "Feature",
      "properties": {
        "@id": "node/296444881",
        "addr:conscriptionnumber": "309",
        "addr:housenumber": "309/2",
        "addr:postcode": "14100",
        "addr:street": "Obrovského",
        "addr:streetnumber": "2",
        "source:addr": "uir_adr",
        "uir_adr:ADRESA_KOD": "21829381"
      },
      "geometry": {
        "type": "Point",
        "coordinates": [
          14.487122,
          50.0441193
        ]
      },
      "id": "node/296444881"
    },
    {
      "type": "Feature",
      "properties": {
        "@id": "node/296444931",
        "addr:conscriptionnumber": "219",
        "addr:housenumber": "219/7",
        "addr:postcode": "14900",
        "addr:street": "Švabinského",
        "addr:streetnumber": "7",
        "source:addr": "uir_adr",
        "uir_adr:ADRESA_KOD": "21828385"
      },
      "geometry": {
        "type": "Point",
        "coordinates": [
          14.4986505,
          50.031685
        ]
      },
      "id": "node/296444931"
    },
    {
      "type": "Feature",
      "properties": {
        "@id": "node/296445082",
        "addr:conscriptionnumber": "1116",
        "addr:housenumber": "1116/33",
        "addr:postcode": "14900",
        "addr:street": "Starochodovská",
        "addr:streetnumber": "33",
        "source:addr": "uir_adr",
        "uir_adr:ADRESA_KOD": "21838194"
      },
      "geometry": {
        "type": "Point",
        "coordinates": [
          14.5045467,
          50.0277932
        ]
      },
      "id": "node/296445082"
    },
    {
      "type": "Feature",
      "properties": {
        "@id": "node/296445099",
        "addr:conscriptionnumber": "80",
        "addr:housenumber": "80/52",
        "addr:postcode": "14900",
        "addr:street": "7. května",
        "addr:streetnumber": "52",
        "source:addr": "uir_adr",
        "uir_adr:ADRESA_KOD": "21827362"
      },
      "geometry": {
        "type": "Point",
        "coordinates": [
          14.5003309,
          50.0315333
        ]
      },
      "id": "node/296445099"
    },
    {
      "type": "Feature",
      "properties": {
        "@id": "node/296445105",
        "addr:conscriptionnumber": "550",
        "addr:housenumber": "550",
        "addr:postcode": "14900",
        "addr:street": "Stýblova",
        "source:addr": "uir_adr",
        "uir_adr:ADRESA_KOD": "21831947"
      },
      "geometry": {
        "type": "Point",
        "coordinates": [
          14.5053293,
          50.035403
        ]
      },
      "id": "node/296445105"
    },
    {
      "type": "Feature",
      "properties": {
        "@id": "node/296445290",
        "addr:conscriptionnumber": "2105",
        "addr:housenumber": "2105/3",
        "addr:postcode": "14800",
        "addr:street": "Hrudičkova",
        "addr:streetnumber": "3",
        "source:addr": "uir_adr",
        "uir_adr:ADRESA_KOD": "21846651"
      },
      "geometry": {
        "type": "Point",
        "coordinates": [
          14.478604,
          50.0336043
        ]
      },
      "id": "node/296445290"
    },
    {
      "type": "Feature",
      "properties": {
        "@id": "node/296445311",
        "addr:conscriptionnumber": "1969",
        "addr:housenumber": "1969/11",
        "addr:postcode": "14800",
        "addr:street": "Hrabákova",
        "addr:streetnumber": "11",
        "source:addr": "uir_adr",
        "uir_adr:ADRESA_KOD": "21845271"
      },
      "geometry": {
        "type": "Point",
        "coordinates": [
          14.4846826,
          50.0293073
        ]
      },
      "id": "node/296445311"
    },
    {
      "type": "Feature",
      "properties": {
        "@id": "node/296445408",
        "addr:conscriptionnumber": "805",
        "addr:housenumber": "805/14",
        "addr:postcode": "14900",
        "addr:street": "7. května",
        "addr:streetnumber": "14",
        "source:addr": "uir_adr",
        "uir_adr:ADRESA_KOD": "21834768"
      },
      "geometry": {
        "type": "Point",
        "coordinates": [
          14.5037767,
          50.0277709
        ]
      },
      "id": "node/296445408"
    },
    {
      "type": "Feature",
      "properties": {
        "@id": "node/296445488",
        "addr:conscriptionnumber": "706",
        "addr:housenumber": "706/76",
        "addr:postcode": "14900",
        "addr:street": "Medkova",
        "addr:streetnumber": "76",
        "source:addr": "uir_adr",
        "uir_adr:ADRESA_KOD": "21833711"
      },
      "geometry": {
        "type": "Point",
        "coordinates": [
          14.5006191,
          50.0280468
        ]
      },
      "id": "node/296445488"
    },
    {
      "type": "Feature",
      "properties": {
        "@id": "node/296445652",
        "addr:conscriptionnumber": "58",
        "addr:housenumber": "58/11",
        "addr:postcode": "14900",
        "addr:street": "Květnového vítězství",
        "addr:streetnumber": "11",
        "source:addr": "uir_adr",
        "uir_adr:ADRESA_KOD": "21827206"
      },
      "geometry": {
        "type": "Point",
        "coordinates": [
          14.5036739,
          50.033523
        ]
      },
      "id": "node/296445652"
    },
    {
      "type": "Feature",
      "properties": {
        "@id": "node/296445699",
        "addr:conscriptionnumber": "2090",
        "addr:housenumber": "2090/7",
        "addr:postcode": "14800",
        "addr:street": "Gregorova",
        "addr:streetnumber": "7",
        "source:addr": "uir_adr",
        "uir_adr:ADRESA_KOD": "21846502"
      },
      "geometry": {
        "type": "Point",
        "coordinates": [
          14.4807973,
          50.0338248
        ]
      },
      "id": "node/296445699"
    },
    {
      "type": "Feature",
      "properties": {
        "@id": "node/296445714",
        "addr:conscriptionnumber": "1498",
        "addr:housenumber": "1498/48",
        "addr:place": "Chodov",
        "addr:postcode": "14900",
        "addr:street": "Konstantinova",
        "addr:streetnumber": "48",
        "ref:ruian:addr": "21840512"
      },
      "geometry": {
        "type": "Point",
        "coordinates": [
          14.5207647,
          50.0290498
        ]
      },
      "id": "node/296445714"
    },
    {
      "type": "Feature",
      "properties": {
        "@id": "node/296445736",
        "addr:conscriptionnumber": "520",
        "addr:housenumber": "520/59",
        "addr:postcode": "14900",
        "addr:street": "Květnového vítězství",
        "addr:streetnumber": "59",
        "source:addr": "uir_adr",
        "uir_adr:ADRESA_KOD": "21831645"
      },
      "geometry": {
        "type": "Point",
        "coordinates": [
          14.5142487,
          50.0349979
        ]
      },
      "id": "node/296445736"
    },
    {
      "type": "Feature",
      "properties": {
        "@id": "node/296445943",
        "addr:conscriptionnumber": "643",
        "addr:housenumber": "643/21",
        "addr:postcode": "14900",
        "addr:street": "Volkovova",
        "addr:streetnumber": "21",
        "source:addr": "uir_adr",
        "uir_adr:ADRESA_KOD": "21833036"
      },
      "geometry": {
        "type": "Point",
        "coordinates": [
          14.5129479,
          50.0366169
        ]
      },
      "id": "node/296445943"
    },
    {
      "type": "Feature",
      "properties": {
        "@id": "node/296445978",
        "addr:conscriptionnumber": "295",
        "addr:housenumber": "295/15",
        "addr:postcode": "14900",
        "addr:street": "7. května",
        "addr:streetnumber": "15",
        "source:addr": "uir_adr",
        "uir_adr:ADRESA_KOD": "21829233"
      },
      "geometry": {
        "type": "Point",
        "coordinates": [
          14.5036038,
          50.0274562
        ]
      },
      "id": "node/296445978"
    },
    {
      "type": "Feature",
      "properties": {
        "@id": "node/296445983",
        "addr:conscriptionnumber": "1901",
        "addr:housenumber": "1901/6",
        "addr:postcode": "14800",
        "addr:street": "Hráského",
        "addr:streetnumber": "6",
        "source:addr": "uir_adr",
        "uir_adr:ADRESA_KOD": "21844593"
      },
      "geometry": {
        "type": "Point",
        "coordinates": [
          14.491694,
          50.027089
        ]
      },
      "id": "node/296445983"
    },
    {
      "type": "Feature",
      "properties": {
        "@id": "node/296446160",
        "addr:conscriptionnumber": "1795",
        "addr:housenumber": "1795/17",
        "addr:postcode": "14800",
        "addr:street": "Láskova",
        "addr:streetnumber": "17",
        "source:addr": "uir_adr",
        "uir_adr:ADRESA_KOD": "21843538"
      },
      "geometry": {
        "type": "Point",
        "coordinates": [
          14.4939851,
          50.0241236
        ]
      },
      "id": "node/296446160"
    },
    {
      "type": "Feature",
      "properties": {
        "@id": "node/296446291",
        "addr:conscriptionnumber": "1706",
        "addr:housenumber": "1706/2",
        "addr:postcode": "14900",
        "addr:street": "Kahovská",
        "addr:streetnumber": "2",
        "source:addr": "uir_adr",
        "uir_adr:ADRESA_KOD": "21842621"
      },
      "geometry": {
        "type": "Point",
        "coordinates": [
          14.5013626,
          50.0339109
        ]
      },
      "id": "node/296446291"
    },
    {
      "type": "Feature",
      "properties": {
        "@id": "node/296446311",
        "addr:conscriptionnumber": "371",
        "addr:housenumber": "371/20",
        "addr:postcode": "14900",
        "addr:street": "Šperlova",
        "addr:streetnumber": "20",
        "source:addr": "uir_adr",
        "uir_adr:ADRESA_KOD": "21830053"
      },
      "geometry": {
        "type": "Point",
        "coordinates": [
          14.5101301,
          50.0351534
        ]
      },
      "id": "node/296446311"
    },
    {
      "type": "Feature",
      "properties": {
        "@id": "node/296446345",
        "addr:conscriptionnumber": "1414",
        "addr:housenumber": "1414/4",
        "addr:postcode": "14900",
        "addr:street": "Radimovická",
        "addr:streetnumber": "4",
        "source:addr": "uir_adr",
        "uir_adr:ADRESA_KOD": "21839671"
      },
      "geometry": {
        "type": "Point",
        "coordinates": [
          14.5155676,
          50.0221101
        ]
      },
      "id": "node/296446345"
    },
    {
      "type": "Feature",
      "properties": {
        "@id": "node/296446421",
        "addr:conscriptionnumber": "1572",
        "addr:housenumber": "1572/13",
        "addr:postcode": "14900",
        "addr:street": "Mikulova",
        "addr:streetnumber": "13",
        "source:addr": "uir_adr",
        "uir_adr:ADRESA_KOD": "21841268"
      },
      "geometry": {
        "type": "Point",
        "coordinates": [
          14.514964,
          50.0306868
        ]
      },
      "id": "node/296446421"
    },
    {
      "type": "Feature",
      "properties": {
        "@id": "node/296446546",
        "addr:conscriptionnumber": "936",
        "addr:housenumber": "936/9",
        "addr:place": "Chodov",
        "addr:postcode": "14900",
        "addr:street": "7. května",
        "addr:streetnumber": "9",
        "ref:ruian:addr": "21836205"
      },
      "geometry": {
        "type": "Point",
        "coordinates": [
          14.5037592,
          50.0271886
        ]
      },
      "id": "node/296446546"
    },
    {
      "type": "Feature",
      "properties": {
        "@id": "node/296446684",
        "addr:conscriptionnumber": "792",
        "addr:housenumber": "792/96",
        "addr:postcode": "14900",
        "addr:street": "Zakouřilova",
        "addr:streetnumber": "96",
        "source:addr": "uir_adr",
        "uir_adr:ADRESA_KOD": "21834610"
      },
      "geometry": {
        "type": "Point",
        "coordinates": [
          14.4979706,
          50.0287122
        ]
      },
      "id": "node/296446684"
    },
    {
      "type": "Feature",
      "properties": {
        "@id": "node/296446759",
        "addr:conscriptionnumber": "406",
        "addr:housenumber": "406/10",
        "addr:postcode": "14900",
        "addr:street": "Ke sv. Izidoru",
        "addr:streetnumber": "10",
        "source:addr": "uir_adr",
        "uir_adr:ADRESA_KOD": "21830436"
      },
      "geometry": {
        "type": "Point",
        "coordinates": [
          14.4994683,
          50.0296879
        ]
      },
      "id": "node/296446759"
    },
    {
      "type": "Feature",
      "properties": {
        "@id": "node/296446988",
        "addr:conscriptionnumber": "1932",
        "addr:housenumber": "1932/20",
        "addr:postcode": "14900",
        "addr:street": "Šalounova",
        "addr:streetnumber": "20",
        "source:addr": "uir_adr",
        "uir_adr:ADRESA_KOD": "21844909"
      },
      "geometry": {
        "type": "Point",
        "coordinates": [
          14.5106159,
          50.0255408
        ]
      },
      "id": "node/296446988"
    },
    {
      "type": "Feature",
      "properties": {
        "@id": "node/296447079",
        "addr:conscriptionnumber": "1399",
        "addr:housenumber": "1399/19",
        "addr:postcode": "14900",
        "addr:street": "Tererova",
        "addr:streetnumber": "19",
        "source:addr": "uir_adr",
        "uir_adr:ADRESA_KOD": "21839522"
      },
      "geometry": {
        "type": "Point",
        "coordinates": [
          14.519974,
          50.0237264
        ]
      },
      "id": "node/296447079"
    },
    {
      "type": "Feature",
      "properties": {
        "@id": "node/296447114",
        "addr:conscriptionnumber": "2153",
        "addr:housenumber": "2153/8",
        "addr:place": "Chodov",
        "addr:postcode": "14800",
        "addr:street": "Babákova",
        "addr:streetnumber": "8",
        "ref:ruian:addr": "21847100"
      },
      "geometry": {
        "type": "Point",
        "coordinates": [
          14.4863756,
          50.0367154
        ]
      },
      "id": "node/296447114"
    },
    {
      "type": "Feature",
      "properties": {
        "@id": "node/296447267",
        "addr:conscriptionnumber": "1085",
        "addr:housenumber": "1085/25",
        "addr:place": "Chodov",
        "addr:postcode": "14900",
        "addr:street": "Malebná",
        "addr:streetnumber": "25",
        "ref:ruian:addr": "30482976"
      },
      "geometry": {
        "type": "Point",
        "coordinates": [
          14.5013877,
          50.0264809
        ]
      },
      "id": "node/296447267"
    },
    {
      "type": "Feature",
      "properties": {
        "@id": "node/296447328",
        "addr:conscriptionnumber": "114",
        "addr:housenumber": "114",
        "addr:postcode": "14900",
        "addr:street": "Lažanského",
        "source:addr": "uir_adr",
        "uir_adr:ADRESA_KOD": "21827478"
      },
      "geometry": {
        "type": "Point",
        "coordinates": [
          14.5008061,
          50.0296241
        ]
      },
      "id": "node/296447328"
    },
    {
      "type": "Feature",
      "properties": {
        "@id": "node/296447682",
        "addr:conscriptionnumber": "1767",
        "addr:housenumber": "1767/44",
        "addr:postcode": "14900",
        "addr:street": "Jažlovická",
        "addr:streetnumber": "44",
        "source:addr": "uir_adr",
        "uir_adr:ADRESA_KOD": "21843244"
      },
      "geometry": {
        "type": "Point",
        "coordinates": [
          14.5257298,
          50.0275393
        ]
      },
      "id": "node/296447682"
    },
    {
      "type": "Feature",
      "properties": {
        "@id": "node/296447690",
        "addr:conscriptionnumber": "386",
        "addr:housenumber": "386/6",
        "addr:postcode": "14900",
        "addr:street": "Švecova",
        "addr:streetnumber": "6",
        "source:addr": "uir_adr",
        "uir_adr:ADRESA_KOD": "21830207"
      },
      "geometry": {
        "type": "Point",
        "coordinates": [
          14.5137112,
          50.0353409
        ]
      },
      "id": "node/296447690"
    },
    {
      "type": "Feature",
      "properties": {
        "@id": "node/296447749",
        "addr:conscriptionnumber": "949",
        "addr:housenumber": "949/6",
        "addr:place": "Chodov",
        "addr:postcode": "14900",
        "addr:street": "7. května",
        "addr:streetnumber": "6",
        "ref:ruian:addr": "21836361"
      },
      "geometry": {
        "type": "Point",
        "coordinates": [
          14.5041816,
          50.0269898
        ]
      },
      "id": "node/296447749"
    },
    {
      "type": "Feature",
      "properties": {
        "@id": "node/296447788",
        "addr:conscriptionnumber": "743",
        "addr:housenumber": "743",
        "addr:postcode": "14900",
        "addr:street": "Donovalská",
        "source:addr": "uir_adr",
        "uir_adr:ADRESA_KOD": "21834091"
      },
      "geometry": {
        "type": "Point",
        "coordinates": [
          14.5136955,
          50.0359475
        ]
      },
      "id": "node/296447788"
    },
    {
      "type": "Feature",
      "properties": {
        "@id": "node/296447905",
        "addr:conscriptionnumber": "1543",
        "addr:housenumber": "1543/12",
        "addr:place": "Chodov",
        "addr:postcode": "14900",
        "addr:street": "V jezírkách",
        "addr:streetnumber": "12",
        "ref:ruian:addr": "21840962"
      },
      "geometry": {
        "type": "Point",
        "coordinates": [
          14.5190483,
          50.0265627
        ]
      },
      "id": "node/296447905"
    },
    {
      "type": "Feature",
      "properties": {
        "@id": "node/296447931",
        "addr:conscriptionnumber": "365",
        "addr:housenumber": "365/6",
        "addr:postcode": "14900",
        "addr:street": "Mokrá",
        "addr:streetnumber": "6",
        "source:addr": "uir_adr",
        "uir_adr:ADRESA_KOD": "21829977"
      },
      "geometry": {
        "type": "Point",
        "coordinates": [
          14.5057872,
          50.0343725
        ]
      },
      "id": "node/296447931"
    },
    {
      "type": "Feature",
      "properties": {
        "@id": "node/296447964",
        "addr:conscriptionnumber": "448",
        "addr:housenumber": "448/41",
        "addr:postcode": "14900",
        "addr:street": "Švabinského",
        "addr:streetnumber": "41",
        "source:addr": "uir_adr",
        "uir_adr:ADRESA_KOD": "21830886"
      },
      "geometry": {
        "type": "Point",
        "coordinates": [
          14.5018819,
          50.0284028
        ]
      },
      "id": "node/296447964"
    },
    {
      "type": "Feature",
      "properties": {
        "@id": "node/296448026",
        "addr:conscriptionnumber": "657",
        "addr:housenumber": "657/42",
        "addr:postcode": "14900",
        "addr:street": "Medkova",
        "addr:streetnumber": "42",
        "source:addr": "uir_adr",
        "uir_adr:ADRESA_KOD": "21833184"
      },
      "geometry": {
        "type": "Point",
        "coordinates": [
          14.4979782,
          50.0307365
        ]
      },
      "id": "node/296448026"
    },
    {
      "type": "Feature",
      "properties": {
        "@id": "node/296448035",
        "addr:conscriptionnumber": "877",
        "addr:housenumber": "877/91",
        "addr:postcode": "14900",
        "addr:street": "Zakouřilova",
        "addr:streetnumber": "91",
        "source:addr": "uir_adr",
        "uir_adr:ADRESA_KOD": "21835551"
      },
      "geometry": {
        "type": "Point",
        "coordinates": [
          14.5006799,
          50.0263642
        ]
      },
      "id": "node/296448035"
    },
    {
      "type": "Feature",
      "properties": {
        "@id": "node/296448157",
        "addr:conscriptionnumber": "1099",
        "addr:housenumber": "1099/35",
        "addr:postcode": "14900",
        "addr:street": "Květnového vítězství",
        "addr:streetnumber": "35",
        "source:addr": "uir_adr",
        "uir_adr:ADRESA_KOD": "21838020"
      },
      "geometry": {
        "type": "Point",
        "coordinates": [
          14.5098491,
          50.0342848
        ]
      },
      "id": "node/296448157"
    },
    {
      "type": "Feature",
      "properties": {
        "@id": "node/296448271",
        "addr:conscriptionnumber": "948",
        "addr:housenumber": "948/8",
        "addr:postcode": "14900",
        "addr:street": "Zakouřilova",
        "addr:streetnumber": "8",
        "source:addr": "uir_adr",
        "uir_adr:ADRESA_KOD": "21836353"
      },
      "geometry": {
        "type": "Point",
        "coordinates": [
          14.4935541,
          50.0331967
        ]
      },
      "id": "node/296448271"
    },
    {
      "type": "Feature",
      "properties": {
        "@id": "node/296448614",
        "addr:conscriptionnumber": "2154",
        "addr:housenumber": "2154/10",
        "addr:place": "Chodov",
        "addr:postcode": "14800",
        "addr:street": "Babákova",
        "addr:streetnumber": "10",
        "ref:ruian:addr": "21847118"
      },
      "geometry": {
        "type": "Point",
        "coordinates": [
          14.4861657,
          50.0367891
        ]
      },
      "id": "node/296448614"
    },
    {
      "type": "Feature",
      "properties": {
        "@id": "node/296448877",
        "addr:conscriptionnumber": "1018",
        "addr:housenumber": "1018/34",
        "addr:postcode": "14900",
        "addr:street": "K remízku",
        "addr:streetnumber": "34",
        "source:addr": "uir_adr",
        "uir_adr:ADRESA_KOD": "21837180"
      },
      "geometry": {
        "type": "Point",
        "coordinates": [
          14.4949151,
          50.0349499
        ]
      },
      "id": "node/296448877"
    },
    {
      "type": "Feature",
      "properties": {
        "@id": "node/296448943",
        "addr:conscriptionnumber": "1849",
        "addr:housenumber": "1849/7",
        "addr:postcode": "14800",
        "addr:street": "Zlešická",
        "addr:streetnumber": "7",
        "source:addr": "uir_adr",
        "uir_adr:ADRESA_KOD": "21844071"
      },
      "geometry": {
        "type": "Point",
        "coordinates": [
          14.4951147,
          50.0223173
        ]
      },
      "id": "node/296448943"
    },
    {
      "type": "Feature",
      "properties": {
        "@id": "node/296449078",
        "addr:conscriptionnumber": "1384",
        "addr:housenumber": "1384/12",
        "addr:postcode": "14900",
        "addr:street": "Brandlova",
        "addr:streetnumber": "12",
        "source:addr": "uir_adr",
        "uir_adr:ADRESA_KOD": "21839379"
      },
      "geometry": {
        "type": "Point",
        "coordinates": [
          14.5206328,
          50.0329903
        ]
      },
      "id": "node/296449078"
    },
    {
      "type": "Feature",
      "properties": {
        "@id": "node/296449222",
        "addr:conscriptionnumber": "394",
        "addr:housenumber": "394/23",
        "addr:postcode": "14900",
        "addr:street": "Vycpálkova",
        "addr:streetnumber": "23",
        "source:addr": "uir_adr",
        "uir_adr:ADRESA_KOD": "21830282"
      },
      "geometry": {
        "type": "Point",
        "coordinates": [
          14.51129,
          50.0358633
        ]
      },
      "id": "node/296449222"
    },
    {
      "type": "Feature",
      "properties": {
        "@id": "node/296449243",
        "addr:conscriptionnumber": "1999",
        "addr:housenumber": "1999/22",
        "addr:place": "Chodov",
        "addr:postcode": "14800",
        "addr:street": "Dědinova",
        "addr:streetnumber": "22",
        "ref:ruian:addr": "21845573"
      },
      "geometry": {
        "type": "Point",
        "coordinates": [
          14.4849938,
          50.0321666
        ]
      },
      "id": "node/296449243"
    },
    {
      "type": "Feature",
      "properties": {
        "@id": "node/296449258",
        "addr:conscriptionnumber": "1917",
        "addr:housenumber": "1917/2",
        "addr:postcode": "14800",
        "addr:street": "Klírova",
        "addr:streetnumber": "2",
        "source:addr": "uir_adr",
        "uir_adr:ADRESA_KOD": "21844755"
      },
      "geometry": {
        "type": "Point",
        "coordinates": [
          14.4900066,
          50.026278
        ]
      },
      "id": "node/296449258"
    },
    {
      "type": "Feature",
      "properties": {
        "@id": "node/296449692",
        "addr:conscriptionnumber": "1864",
        "addr:housenumber": "1864/38",
        "addr:postcode": "14900",
        "addr:street": "Květnového vítězství",
        "addr:streetnumber": "38",
        "source:addr": "uir_adr",
        "uir_adr:ADRESA_KOD": "21844224"
      },
      "geometry": {
        "type": "Point",
        "coordinates": [
          14.5113486,
          50.03399
        ]
      },
      "id": "node/296449692"
    },
    {
      "type": "Feature",
      "properties": {
        "@id": "node/296449953",
        "addr:conscriptionnumber": "891",
        "addr:housenumber": "891/14",
        "addr:postcode": "14900",
        "addr:street": "Starochodovská",
        "addr:streetnumber": "14",
        "source:addr": "uir_adr",
        "uir_adr:ADRESA_KOD": "21835705"
      },
      "geometry": {
        "type": "Point",
        "coordinates": [
          14.5056098,
          50.0266979
        ]
      },
      "id": "node/296449953"
    },
    {
      "type": "Feature",
      "properties": {
        "@id": "node/296450007",
        "addr:conscriptionnumber": "231",
        "addr:housenumber": "231/11",
        "addr:postcode": "14900",
        "addr:street": "Švabinského",
        "addr:streetnumber": "11",
        "source:addr": "uir_adr",
        "uir_adr:ADRESA_KOD": "21828521"
      },
      "geometry": {
        "type": "Point",
        "coordinates": [
          14.4988618,
          50.0314858
        ]
      },
      "id": "node/296450007"
    },
    {
      "type": "Feature",
      "properties": {
        "@id": "node/296450307",
        "addr:conscriptionnumber": "1069",
        "addr:housenumber": "1069/3",
        "addr:postcode": "14900",
        "addr:street": "Stýblova",
        "addr:streetnumber": "3",
        "source:addr": "uir_adr",
        "uir_adr:ADRESA_KOD": "21837724"
      },
      "geometry": {
        "type": "Point",
        "coordinates": [
          14.5025173,
          50.0349108
        ]
      },
      "id": "node/296450307"
    },
    {
      "type": "Feature",
      "properties": {
        "@id": "node/296450335",
        "addr:conscriptionnumber": "491",
        "addr:housenumber": "491/1",
        "addr:postcode": "14900",
        "addr:street": "Dobrovolského",
        "addr:streetnumber": "1",
        "source:addr": "uir_adr",
        "uir_adr:ADRESA_KOD": "21831343"
      },
      "geometry": {
        "type": "Point",
        "coordinates": [
          14.5084867,
          50.0350634
        ]
      },
      "id": "node/296450335"
    },
    {
      "type": "Feature",
      "properties": {
        "@id": "node/296450501",
        "addr:conscriptionnumber": "1551",
        "addr:housenumber": "1551/17",
        "addr:postcode": "14900",
        "addr:street": "Bohúňova",
        "addr:streetnumber": "17",
        "source:addr": "uir_adr",
        "uir_adr:ADRESA_KOD": "21841047"
      },
      "geometry": {
        "type": "Point",
        "coordinates": [
          14.5216875,
          50.025406
        ]
      },
      "id": "node/296450501"
    },
    {
      "type": "Feature",
      "properties": {
        "@id": "node/296450689",
        "addr:conscriptionnumber": "1834",
        "addr:housenumber": "1834/23",
        "addr:postcode": "14800",
        "addr:street": "Nechvílova",
        "addr:streetnumber": "23",
        "source:addr": "uir_adr",
        "uir_adr:ADRESA_KOD": "21843929"
      },
      "geometry": {
        "type": "Point",
        "coordinates": [
          14.4962595,
          50.0233618
        ]
      },
      "id": "node/296450689"
    },
    {
      "type": "Feature",
      "properties": {
        "@id": "node/296450740",
        "addr:conscriptionnumber": "484",
        "addr:housenumber": "484/41",
        "addr:postcode": "14900",
        "addr:street": "7. května",
        "addr:streetnumber": "41",
        "source:addr": "uir_adr",
        "uir_adr:ADRESA_KOD": "21831262"
      },
      "geometry": {
        "type": "Point",
        "coordinates": [
          14.5023129,
          50.0294934
        ]
      },
      "id": "node/296450740"
    },
    {
      "type": "Feature",
      "properties": {
        "@id": "node/296450822",
        "addr:conscriptionnumber": "1341",
        "addr:housenumber": "1341/3",
        "addr:postcode": "14900",
        "addr:street": "Bohúňova",
        "addr:streetnumber": "3",
        "source:addr": "uir_adr",
        "uir_adr:ADRESA_KOD": "21838933"
      },
      "geometry": {
        "type": "Point",
        "coordinates": [
          14.5225981,
          50.0240976
        ]
      },
      "id": "node/296450822"
    },
    {
      "type": "Feature",
      "properties": {
        "@id": "node/296450961",
        "addr:conscriptionnumber": "770",
        "addr:housenumber": "770/60",
        "addr:postcode": "14900",
        "addr:street": "Zakouřilova",
        "addr:streetnumber": "60",
        "source:addr": "uir_adr",
        "uir_adr:ADRESA_KOD": "21834393"
      },
      "geometry": {
        "type": "Point",
        "coordinates": [
          14.4960684,
          50.0306411
        ]
      },
      "id": "node/296450961"
    },
    {
      "type": "Feature",
      "properties": {
        "@id": "node/296451088",
        "addr:city": "Praha",
        "addr:conscriptionnumber": "2018",
        "addr:housenumber": "2018/10",
        "addr:postcode": "14800",
        "addr:street": "Filipova",
        "addr:streetnumber": "10",
        "source:addr": "uir_adr",
        "uir_adr:ADRESA_KOD": "21845794"
      },
      "geometry": {
        "type": "Point",
        "coordinates": [
          14.4833289,
          50.0324295
        ]
      },
      "id": "node/296451088"
    },
    {
      "type": "Feature",
      "properties": {
        "@id": "node/296451108",
        "addr:conscriptionnumber": "868",
        "addr:housenumber": "868/74",
        "addr:postcode": "14900",
        "addr:street": "Zakouřilova",
        "addr:streetnumber": "74",
        "source:addr": "uir_adr",
        "uir_adr:ADRESA_KOD": "21835462"
      },
      "geometry": {
        "type": "Point",
        "coordinates": [
          14.4967469,
          50.0299657
        ]
      },
      "id": "node/296451108"
    },
    {
      "type": "Feature",
      "properties": {
        "@id": "node/296451418",
        "addr:conscriptionnumber": "851",
        "addr:housenumber": "851/10",
        "addr:postcode": "14900",
        "addr:street": "Zakouřilova",
        "addr:streetnumber": "10",
        "source:addr": "uir_adr",
        "uir_adr:ADRESA_KOD": "21835292"
      },
      "geometry": {
        "type": "Point",
        "coordinates": [
          14.4936459,
          50.0330959
        ]
      },
      "id": "node/296451418"
    },
    {
      "type": "Feature",
      "properties": {
        "@id": "node/296451447",
        "addr:conscriptionnumber": "1444",
        "addr:housenumber": "1444/2",
        "addr:postcode": "14900",
        "addr:street": "Chomutovická",
        "addr:streetnumber": "2",
        "source:addr": "uir_adr",
        "uir_adr:ADRESA_KOD": "21839972"
      },
      "geometry": {
        "type": "Point",
        "coordinates": [
          14.5134369,
          50.023393
        ]
      },
      "id": "node/296451447"
    },
    {
      "type": "Feature",
      "properties": {
        "@id": "node/296451701",
        "addr:conscriptionnumber": "599",
        "addr:housenumber": "599",
        "addr:postcode": "14900",
        "addr:street": "Dobrovolského",
        "source:addr": "uir_adr",
        "uir_adr:ADRESA_KOD": "21832501"
      },
      "geometry": {
        "type": "Point",
        "coordinates": [
          14.5091009,
          50.0354894
        ]
      },
      "id": "node/296451701"
    },
    {
      "type": "Feature",
      "properties": {
        "@id": "node/296451809",
        "addr:conscriptionnumber": "2049",
        "addr:housenumber": "2049/5",
        "addr:place": "Chodov",
        "addr:postcode": "14900",
        "addr:street": "Majerského",
        "addr:streetnumber": "5",
        "ref:ruian:addr": "21846103"
      },
      "geometry": {
        "type": "Point",
        "coordinates": [
          14.5082969,
          50.0388073
        ]
      },
      "id": "node/296451809"
    },
    {
      "type": "Feature",
      "properties": {
        "@id": "node/296451860",
        "addr:conscriptionnumber": "568",
        "addr:housenumber": "568/7",
        "addr:postcode": "14900",
        "addr:street": "Medkova",
        "addr:streetnumber": "7",
        "source:addr": "uir_adr",
        "uir_adr:ADRESA_KOD": "21832161"
      },
      "geometry": {
        "type": "Point",
        "coordinates": [
          14.4953053,
          50.0338409
        ]
      },
      "id": "node/296451860"
    },
    {
      "type": "Feature",
      "properties": {
        "@id": "node/296453475",
        "addr:conscriptionnumber": "757",
        "addr:housenumber": "757",
        "addr:postcode": "14900",
        "addr:street": "Brechtova",
        "source:addr": "uir_adr",
        "uir_adr:ADRESA_KOD": "21834245"
      },
      "geometry": {
        "type": "Point",
        "coordinates": [
          14.5137634,
          50.0368246
        ]
      },
      "id": "node/296453475"
    },
    {
      "type": "Feature",
      "properties": {
        "@id": "node/296453531",
        "addr:conscriptionnumber": "1713",
        "addr:housenumber": "1713/10",
        "addr:postcode": "14900",
        "addr:street": "Ledvinova",
        "addr:streetnumber": "10",
        "source:addr": "uir_adr",
        "uir_adr:ADRESA_KOD": "21842698"
      },
      "geometry": {
        "type": "Point",
        "coordinates": [
          14.5001761,
          50.0347231
        ]
      },
      "id": "node/296453531"
    },
    {
      "type": "Feature",
      "properties": {
        "@id": "node/296453609",
        "addr:conscriptionnumber": "1520",
        "addr:housenumber": "1520/11",
        "addr:postcode": "14900",
        "addr:street": "Lečkova",
        "addr:streetnumber": "11",
        "source:addr": "uir_adr",
        "uir_adr:ADRESA_KOD": "21840733"
      },
      "geometry": {
        "type": "Point",
        "coordinates": [
          14.5135032,
          50.0274336
        ]
      },
      "id": "node/296453609"
    },
    {
      "type": "Feature",
      "properties": {
        "@id": "node/296454196",
        "addr:conscriptionnumber": "1647",
        "addr:housenumber": "1647/3",
        "addr:postcode": "14900",
        "addr:street": "Ženíškova",
        "addr:streetnumber": "3",
        "source:addr": "uir_adr",
        "uir_adr:ADRESA_KOD": "21842027"
      },
      "geometry": {
        "type": "Point",
        "coordinates": [
          14.5103189,
          50.0326654
        ]
      },
      "id": "node/296454196"
    },
    {
      "type": "Feature",
      "properties": {
        "@id": "node/296454313",
        "addr:conscriptionnumber": "1947",
        "addr:housenumber": "1947/12",
        "addr:postcode": "14800",
        "addr:street": "Petýrkova",
        "addr:streetnumber": "12",
        "source:addr": "uir_adr",
        "uir_adr:ADRESA_KOD": "21845051"
      },
      "geometry": {
        "type": "Point",
        "coordinates": [
          14.4867462,
          50.0296934
        ]
      },
      "id": "node/296454313"
    },
    {
      "type": "Feature",
      "properties": {
        "@id": "node/296455097",
        "addr:conscriptionnumber": "350",
        "addr:housenumber": "350/14",
        "addr:postcode": "14900",
        "addr:street": "Ke sv. Izidoru",
        "addr:streetnumber": "14",
        "source:addr": "uir_adr",
        "uir_adr:ADRESA_KOD": "21829829"
      },
      "geometry": {
        "type": "Point",
        "coordinates": [
          14.4998429,
          50.0298479
        ]
      },
      "id": "node/296455097"
    },
    {
      "type": "Feature",
      "properties": {
        "@id": "node/296455247",
        "addr:conscriptionnumber": "669",
        "addr:housenumber": "669/58",
        "addr:postcode": "14900",
        "addr:street": "Medkova",
        "addr:streetnumber": "58",
        "source:addr": "uir_adr",
        "uir_adr:ADRESA_KOD": "21833338"
      },
      "geometry": {
        "type": "Point",
        "coordinates": [
          14.4994716,
          50.0292072
        ]
      },
      "id": "node/296455247"
    },
    {
      "type": "Feature",
      "properties": {
        "@id": "node/296455346",
        "addr:conscriptionnumber": "1870",
        "addr:housenumber": "1870/24",
        "addr:postcode": "14800",
        "addr:street": "Jarníkova",
        "addr:streetnumber": "24",
        "source:addr": "uir_adr",
        "uir_adr:ADRESA_KOD": "21844283"
      },
      "geometry": {
        "type": "Point",
        "coordinates": [
          14.4921301,
          50.0260293
        ]
      },
      "id": "node/296455346"
    },
    {
      "type": "Feature",
      "properties": {
        "@id": "node/296455545",
        "addr:conscriptionnumber": "1535",
        "addr:housenumber": "1535/8",
        "addr:postcode": "14900",
        "addr:street": "Jašíkova",
        "addr:streetnumber": "8",
        "source:addr": "uir_adr",
        "uir_adr:ADRESA_KOD": "21840881"
      },
      "geometry": {
        "type": "Point",
        "coordinates": [
          14.5169552,
          50.0266693
        ]
      },
      "id": "node/296455545"
    },
    {
      "type": "Feature",
      "properties": {
        "@id": "node/296455594",
        "addr:conscriptionnumber": "1068",
        "addr:housenumber": "1068/36",
        "addr:postcode": "14900",
        "addr:street": "7. května",
        "addr:streetnumber": "36",
        "source:addr": "uir_adr",
        "uir_adr:ADRESA_KOD": "21837716"
      },
      "geometry": {
        "type": "Point",
        "coordinates": [
          14.5022248,
          50.0299757
        ]
      },
      "id": "node/296455594"
    },
    {
      "type": "Feature",
      "properties": {
        "@id": "node/296455878",
        "addr:conscriptionnumber": "1601",
        "addr:housenumber": "1601/8",
        "addr:postcode": "14900",
        "addr:street": "Podjavorinské",
        "addr:streetnumber": "8",
        "source:addr": "uir_adr",
        "uir_adr:ADRESA_KOD": "21841560"
      },
      "geometry": {
        "type": "Point",
        "coordinates": [
          14.5193105,
          50.0316492
        ]
      },
      "id": "node/296455878"
    },
    {
      "type": "Feature",
      "properties": {
        "@id": "node/296456033",
        "addr:conscriptionnumber": "986",
        "addr:housenumber": "986/9",
        "addr:postcode": "14900",
        "addr:street": "Pištěkova",
        "addr:streetnumber": "9",
        "source:addr": "uir_adr",
        "uir_adr:ADRESA_KOD": "21836841"
      },
      "geometry": {
        "type": "Point",
        "coordinates": [
          14.5104525,
          50.0376227
        ]
      },
      "id": "node/296456033"
    },
    {
      "type": "Feature",
      "properties": {
        "@id": "node/296456089",
        "addr:conscriptionnumber": "1318",
        "addr:housenumber": "1318/32",
        "addr:place": "Chodov",
        "addr:postcode": "14900",
        "addr:street": "Jažlovická",
        "addr:streetnumber": "32",
        "ref:ruian:addr": "21838704"
      },
      "geometry": {
        "type": "Point",
        "coordinates": [
          14.5258497,
          50.0263821
        ]
      },
      "id": "node/296456089"
    },
    {
      "type": "Feature",
      "properties": {
        "@id": "node/296456311",
        "addr:conscriptionnumber": "1304",
        "addr:housenumber": "1304/8",
        "addr:postcode": "14900",
        "addr:street": "Doubravická",
        "addr:streetnumber": "8",
        "source:addr": "uir_adr",
        "uir_adr:ADRESA_KOD": "21838551"
      },
      "geometry": {
        "type": "Point",
        "coordinates": [
          14.5234854,
          50.0259631
        ]
      },
      "id": "node/296456311"
    },
    {
      "type": "Feature",
      "properties": {
        "@id": "node/296456438",
        "addr:conscriptionnumber": "2168",
        "addr:housenumber": "2168/11",
        "addr:postcode": "14800",
        "addr:street": "Blatenská",
        "addr:streetnumber": "11",
        "source:addr": "uir_adr",
        "uir_adr:ADRESA_KOD": "21847258"
      },
      "geometry": {
        "type": "Point",
        "coordinates": [
          14.4852594,
          50.0353704
        ]
      },
      "id": "node/296456438"
    },
    {
      "type": "Feature",
      "properties": {
        "@id": "node/296456617",
        "addr:conscriptionnumber": "337",
        "addr:housenumber": "337/5",
        "addr:postcode": "14900",
        "addr:street": "Zimákova",
        "addr:streetnumber": "5",
        "source:addr": "uir_adr",
        "uir_adr:ADRESA_KOD": "21829675"
      },
      "geometry": {
        "type": "Point",
        "coordinates": [
          14.5019311,
          50.0357486
        ]
      },
      "id": "node/296456617"
    },
    {
      "type": "Feature",
      "properties": {
        "@id": "node/296456659",
        "addr:conscriptionnumber": "1616",
        "addr:housenumber": "1616/8",
        "addr:postcode": "14900",
        "addr:street": "Vejvanovského",
        "addr:streetnumber": "8",
        "source:addr": "uir_adr",
        "uir_adr:ADRESA_KOD": "21841713"
      },
      "geometry": {
        "type": "Point",
        "coordinates": [
          14.5187816,
          50.030287
        ]
      },
      "id": "node/296456659"
    },
    {
      "type": "Feature",
      "properties": {
        "@id": "node/296457134",
        "addr:conscriptionnumber": "683",
        "addr:housenumber": "683/5",
        "addr:postcode": "14900",
        "addr:street": "Vycpálkova",
        "addr:streetnumber": "5",
        "source:addr": "uir_adr",
        "uir_adr:ADRESA_KOD": "21833486"
      },
      "geometry": {
        "type": "Point",
        "coordinates": [
          14.512841,
          50.0349922
        ]
      },
      "id": "node/296457134"
    },
    {
      "type": "Feature",
      "properties": {
        "@id": "node/296457177",
        "addr:conscriptionnumber": "1661",
        "addr:housenumber": "1661/36",
        "addr:postcode": "14900",
        "addr:street": "Donovalská",
        "addr:streetnumber": "36",
        "source:addr": "uir_adr",
        "uir_adr:ADRESA_KOD": "21842175"
      },
      "geometry": {
        "type": "Point",
        "coordinates": [
          14.5062898,
          50.0371208
        ]
      },
      "id": "node/296457177"
    },
    {
      "type": "Feature",
      "properties": {
        "@id": "node/296457317",
        "addr:conscriptionnumber": "1676",
        "addr:housenumber": "1676/7",
        "addr:place": "Chodov",
        "addr:postcode": "14900",
        "addr:street": "Brodského",
        "addr:streetnumber": "7",
        "ref:ruian:addr": "21842329"
      },
      "geometry": {
        "type": "Point",
        "coordinates": [
          14.5042108,
          50.0374543
        ]
      },
      "id": "node/296457317"
    },
    {
      "type": "Feature",
      "properties": {
        "@id": "node/296457334",
        "addr:conscriptionnumber": "1355",
        "addr:housenumber": "1355/4",
        "addr:postcode": "14900",
        "addr:street": "Tererova",
        "addr:streetnumber": "4",
        "source:addr": "uir_adr",
        "uir_adr:ADRESA_KOD": "21839085"
      },
      "geometry": {
        "type": "Point",
        "coordinates": [
          14.5212951,
          50.0242645
        ]
      },
      "id": "node/296457334"
    },
    {
      "type": "Feature",
      "properties": {
        "@id": "node/296457580",
        "addr:conscriptionnumber": "1497",
        "addr:housenumber": "1497/46",
        "addr:place": "Chodov",
        "addr:postcode": "14900",
        "addr:street": "Konstantinova",
        "addr:streetnumber": "46",
        "ref:ruian:addr": "21840504"
      },
      "geometry": {
        "type": "Point",
        "coordinates": [
          14.5210199,
          50.0290771
        ]
      },
      "id": "node/296457580"
    },
    {
      "type": "Feature",
      "properties": {
        "@id": "node/296457929",
        "addr:conscriptionnumber": "2183",
        "addr:housenumber": "2183/19",
        "addr:postcode": "14800",
        "addr:street": "Blatenská",
        "addr:streetnumber": "19",
        "source:addr": "uir_adr",
        "uir_adr:ADRESA_KOD": "21847401"
      },
      "geometry": {
        "type": "Point",
        "coordinates": [
          14.4861931,
          50.0364146
        ]
      },
      "id": "node/296457929"
    },
    {
      "type": "Feature",
      "properties": {
        "@id": "node/296458127",
        "addr:conscriptionnumber": "420",
        "addr:housenumber": "420/4",
        "addr:postcode": "14900",
        "addr:street": "Donovalská",
        "addr:streetnumber": "4",
        "source:addr": "uir_adr",
        "uir_adr:ADRESA_KOD": "21830584"
      },
      "geometry": {
        "type": "Point",
        "coordinates": [
          14.5137495,
          50.0362245
        ]
      },
      "id": "node/296458127"
    },
    {
      "type": "Feature",
      "properties": {
        "@id": "node/296458144",
        "addr:conscriptionnumber": "325",
        "addr:housenumber": "325/5",
        "addr:postcode": "14900",
        "addr:street": "Šperlova",
        "addr:streetnumber": "5",
        "source:addr": "uir_adr",
        "uir_adr:ADRESA_KOD": "21829535"
      },
      "geometry": {
        "type": "Point",
        "coordinates": [
          14.5107054,
          50.0346322
        ]
      },
      "id": "node/296458144"
    },
    {
      "type": "Feature",
      "properties": {
        "@id": "node/296458204",
        "addr:conscriptionnumber": "832",
        "addr:housenumber": "832/12",
        "addr:postcode": "14900",
        "addr:street": "Zimákova",
        "addr:streetnumber": "12",
        "source:addr": "uir_adr",
        "uir_adr:ADRESA_KOD": "21835080"
      },
      "geometry": {
        "type": "Point",
        "coordinates": [
          14.5027416,
          50.0356474
        ]
      },
      "id": "node/296458204"
    },
    {
      "type": "Feature",
      "properties": {
        "@id": "node/296458277",
        "addr:conscriptionnumber": "2119",
        "addr:housenumber": "2119/14",
        "addr:postcode": "14900",
        "addr:street": "Bohúňova",
        "addr:streetnumber": "14",
        "source:addr": "uir_adr",
        "uir_adr:ADRESA_KOD": "21846804"
      },
      "geometry": {
        "type": "Point",
        "coordinates": [
          14.5230421,
          50.0254614
        ]
      },
      "id": "node/296458277"
    },
    {
      "type": "Feature",
      "properties": {
        "@id": "node/296458488",
        "addr:conscriptionnumber": "1691",
        "addr:housenumber": "1691/23",
        "addr:postcode": "14900",
        "addr:street": "Benkova",
        "addr:streetnumber": "23",
        "source:addr": "uir_adr",
        "uir_adr:ADRESA_KOD": "21842477"
      },
      "geometry": {
        "type": "Point",
        "coordinates": [
          14.5004005,
          50.0371204
        ]
      },
      "id": "node/296458488"
    },
    {
      "type": "Feature",
      "properties": {
        "@id": "node/296458605",
        "addr:conscriptionnumber": "2198",
        "addr:housenumber": "2198/7",
        "addr:postcode": "14800",
        "addr:street": "Babákova",
        "addr:streetnumber": "7",
        "source:addr": "uir_adr",
        "uir_adr:ADRESA_KOD": "21847550"
      },
      "geometry": {
        "type": "Point",
        "coordinates": [
          14.4849624,
          50.0369686
        ]
      },
      "id": "node/296458605"
    },
    {
      "type": "Feature",
      "properties": {
        "@id": "node/296458918",
        "addr:conscriptionnumber": "1743",
        "addr:housenumber": "1743/8",
        "addr:postcode": "14900",
        "addr:street": "Květnového vítězství",
        "addr:streetnumber": "8",
        "source:addr": "uir_adr",
        "uir_adr:ADRESA_KOD": "21842990"
      },
      "geometry": {
        "type": "Point",
        "coordinates": [
          14.5037946,
          50.0326728
        ]
      },
      "id": "node/296458918"
    },
    {
      "type": "Feature",
      "properties": {
        "@id": "node/296458947",
        "addr:conscriptionnumber": "636",
        "addr:housenumber": "636/32",
        "addr:postcode": "14900",
        "addr:street": "Stýblova",
        "addr:streetnumber": "32",
        "source:addr": "uir_adr",
        "uir_adr:ADRESA_KOD": "21832978"
      },
      "geometry": {
        "type": "Point",
        "coordinates": [
          14.5058015,
          50.0352358
        ]
      },
      "id": "node/296458947"
    },
    {
      "type": "Feature",
      "properties": {
        "@id": "node/296458960",
        "addr:conscriptionnumber": "1587",
        "addr:housenumber": "1587/14",
        "addr:postcode": "14900",
        "addr:street": "Bachova",
        "addr:streetnumber": "14",
        "source:addr": "uir_adr",
        "uir_adr:ADRESA_KOD": "21841411"
      },
      "geometry": {
        "type": "Point",
        "coordinates": [
          14.5117597,
          50.0307586
        ]
      },
      "id": "node/296458960"
    },
    {
      "type": "Feature",
      "properties": {
        "@id": "node/296458979",
        "addr:conscriptionnumber": "152",
        "addr:housenumber": "152",
        "addr:postcode": "14900",
        "addr:street": "7. května",
        "source:addr": "uir_adr",
        "uir_adr:ADRESA_KOD": "21827681"
      },
      "geometry": {
        "type": "Point",
        "coordinates": [
          14.5006126,
          50.0312677
        ]
      },
      "id": "node/296458979"
    },
    {
      "type": "Feature",
      "properties": {
        "@id": "node/296459034",
        "addr:conscriptionnumber": "1370",
        "addr:housenumber": "1370/4",
        "addr:postcode": "14900",
        "addr:street": "Chalupkova",
        "addr:streetnumber": "4",
        "source:addr": "uir_adr",
        "uir_adr:ADRESA_KOD": "21839239"
      },
      "geometry": {
        "type": "Point",
        "coordinates": [
          14.5183508,
          50.0337882
        ]
      },
      "id": "node/296459034"
    },
    {
      "type": "Feature",
      "properties": {
        "@id": "node/296459072",
        "addr:conscriptionnumber": "134",
        "addr:housenumber": "134/20",
        "addr:postcode": "14900",
        "addr:street": "Květnového vítězství",
        "addr:streetnumber": "20",
        "source:addr": "uir_adr",
        "uir_adr:ADRESA_KOD": "21827532"
      },
      "geometry": {
        "type": "Point",
        "coordinates": [
          14.5082875,
          50.0338753
        ]
      },
      "id": "node/296459072"
    },
    {
      "type": "Feature",
      "properties": {
        "@id": "node/296459131",
        "addr:conscriptionnumber": "504",
        "addr:housenumber": "504/6",
        "addr:postcode": "14900",
        "addr:street": "Ke stáčírně",
        "addr:streetnumber": "6",
        "source:addr": "uir_adr",
        "uir_adr:ADRESA_KOD": "21831491"
      },
      "geometry": {
        "type": "Point",
        "coordinates": [
          14.5080632,
          50.0331379
        ]
      },
      "id": "node/296459131"
    },
    {
      "type": "Feature",
      "properties": {
        "@id": "node/296459150",
        "addr:conscriptionnumber": "338",
        "addr:housenumber": "338/10",
        "addr:place": "Chodov",
        "addr:postcode": "14900",
        "addr:street": "V lomech",
        "addr:streetnumber": "10",
        "ref:ruian:addr": "21829683"
      },
      "geometry": {
        "type": "Point",
        "coordinates": [
          14.504559,
          50.025807
        ]
      },
      "id": "node/296459150"
    },
    {
      "type": "Feature",
      "properties": {
        "@id": "node/296459192",
        "addr:conscriptionnumber": "2135",
        "addr:housenumber": "2135/17",
        "addr:postcode": "14900",
        "addr:street": "Tererova",
        "addr:streetnumber": "17",
        "source:addr": "uir_adr",
        "uir_adr:ADRESA_KOD": "21846952"
      },
      "geometry": {
        "type": "Point",
        "coordinates": [
          14.5207549,
          50.0229812
        ]
      },
      "id": "node/296459192"
    },
    {
      "type": "Feature",
      "properties": {
        "@id": "node/296459445",
        "addr:conscriptionnumber": "1054",
        "addr:housenumber": "1054/14",
        "addr:place": "Chodov",
        "addr:postcode": "14900",
        "addr:street": "Pod vodojemem",
        "addr:streetnumber": "14",
        "ref:ruian:addr": "21837571"
      },
      "geometry": {
        "type": "Point",
        "coordinates": [
          14.5033857,
          50.0262265
        ]
      },
      "id": "node/296459445"
    },
    {
      "type": "Feature",
      "properties": {
        "@id": "node/296459540",
        "addr:conscriptionnumber": "971",
        "addr:housenumber": "971/4",
        "addr:postcode": "14900",
        "addr:street": "K dubu",
        "addr:streetnumber": "4",
        "source:addr": "uir_adr",
        "uir_adr:ADRESA_KOD": "21836663"
      },
      "geometry": {
        "type": "Point",
        "coordinates": [
          14.4955727,
          50.0316501
        ]
      },
      "id": "node/296459540"
    },
    {
      "type": "Feature",
      "properties": {
        "@id": "node/296459721",
        "addr:conscriptionnumber": "1728",
        "addr:housenumber": "1728/15",
        "addr:postcode": "14900",
        "addr:street": "Valentova",
        "addr:streetnumber": "15",
        "source:addr": "uir_adr",
        "uir_adr:ADRESA_KOD": "21842841"
      },
      "geometry": {
        "type": "Point",
        "coordinates": [
          14.5067562,
          50.0327244
        ]
      },
      "id": "node/296459721"
    },
    {
      "type": "Feature",
      "properties": {
        "@id": "node/296459762",
        "addr:conscriptionnumber": "1429",
        "addr:housenumber": "1429/13",
        "addr:postcode": "14900",
        "addr:street": "Zdiměřická",
        "addr:streetnumber": "13",
        "source:addr": "uir_adr",
        "uir_adr:ADRESA_KOD": "21839824"
      },
      "geometry": {
        "type": "Point",
        "coordinates": [
          14.5123496,
          50.0224081
        ]
      },
      "id": "node/296459762"
    },
    {
      "type": "Feature",
      "properties": {
        "@id": "node/296459793",
        "addr:conscriptionnumber": "1610",
        "addr:housenumber": "1610/1",
        "addr:postcode": "14900",
        "addr:street": "Vejvanovského",
        "addr:streetnumber": "1",
        "source:addr": "uir_adr",
        "uir_adr:ADRESA_KOD": "21841659"
      },
      "geometry": {
        "type": "Point",
        "coordinates": [
          14.5179833,
          50.0309973
        ]
      },
      "id": "node/296459793"
    },
    {
      "type": "Feature",
      "properties": {
        "@id": "node/296460305",
        "addr:city": "Praha",
        "addr:conscriptionnumber": "1977",
        "addr:housenumber": "1977/8",
        "addr:postcode": "14800",
        "addr:street": "Hrabákova",
        "addr:streetnumber": "8",
        "source:addr": "uir_adr",
        "uir_adr:ADRESA_KOD": "21845352"
      },
      "geometry": {
        "type": "Point",
        "coordinates": [
          14.4837225,
          50.029967
        ]
      },
      "id": "node/296460305"
    },
    {
      "type": "Feature",
      "properties": {
        "@id": "node/296460592",
        "addr:conscriptionnumber": "1819",
        "addr:housenumber": "1819/22",
        "addr:postcode": "14800",
        "addr:street": "Láskova",
        "addr:streetnumber": "22",
        "source:addr": "uir_adr",
        "uir_adr:ADRESA_KOD": "21843775"
      },
      "geometry": {
        "type": "Point",
        "coordinates": [
          14.4951071,
          50.0240606
        ]
      },
      "id": "node/296460592"
    },
    {
      "type": "Feature",
      "properties": {
        "@id": "node/296460717",
        "addr:conscriptionnumber": "1789",
        "addr:housenumber": "1789/9",
        "addr:postcode": "14800",
        "addr:street": "Malenická",
        "addr:streetnumber": "9",
        "source:addr": "uir_adr",
        "uir_adr:ADRESA_KOD": "21843473"
      },
      "geometry": {
        "type": "Point",
        "coordinates": [
          14.4940715,
          50.0251112
        ]
      },
      "id": "node/296460717"
    },
    {
      "type": "Feature",
      "properties": {
        "@id": "node/296460850",
        "addr:conscriptionnumber": "443",
        "addr:housenumber": "443/12",
        "addr:postcode": "14900",
        "addr:street": "Leopoldova",
        "addr:streetnumber": "12",
        "source:addr": "uir_adr",
        "uir_adr:ADRESA_KOD": "21830827"
      },
      "geometry": {
        "type": "Point",
        "coordinates": [
          14.5104317,
          50.0385193
        ]
      },
      "id": "node/296460850"
    },
    {
      "type": "Feature",
      "properties": {
        "@id": "node/296461023",
        "addr:conscriptionnumber": "274",
        "addr:housenumber": "274/10",
        "addr:postcode": "14900",
        "addr:street": "U kolonie",
        "addr:streetnumber": "10",
        "source:addr": "uir_adr",
        "uir_adr:ADRESA_KOD": "21829004"
      },
      "geometry": {
        "type": "Point",
        "coordinates": [
          14.5015652,
          50.0275432
        ]
      },
      "id": "node/296461023"
    },
    {
      "type": "Feature",
      "properties": {
        "@id": "node/296461086",
        "addr:conscriptionnumber": "1012",
        "addr:housenumber": "1012/22",
        "addr:postcode": "14900",
        "addr:street": "K remízku",
        "addr:streetnumber": "22",
        "source:addr": "uir_adr",
        "uir_adr:ADRESA_KOD": "21837112"
      },
      "geometry": {
        "type": "Point",
        "coordinates": [
          14.4940547,
          50.034357
        ]
      },
      "id": "node/296461086"
    },
    {
      "type": "Feature",
      "properties": {
        "@id": "node/296461234",
        "addr:conscriptionnumber": "1086",
        "addr:housenumber": "1086/65",
        "addr:postcode": "14900",
        "addr:street": "Malebná",
        "addr:streetnumber": "65",
        "source:addr": "uir_adr",
        "uir_adr:ADRESA_KOD": "21837902"
      },
      "geometry": {
        "type": "Point",
        "coordinates": [
          14.4963692,
          50.0315478
        ]
      },
      "id": "node/296461234"
    },
    {
      "type": "Feature",
      "properties": {
        "@id": "node/296461614",
        "addr:conscriptionnumber": "1124",
        "addr:housenumber": "1124/116",
        "addr:postcode": "14900",
        "addr:street": "Zakouřilova",
        "addr:streetnumber": "116",
        "source:addr": "uir_adr",
        "uir_adr:ADRESA_KOD": "21838275"
      },
      "geometry": {
        "type": "Point",
        "coordinates": [
          14.4987937,
          50.0278862
        ]
      },
      "id": "node/296461614"
    },
    {
      "type": "Feature",
      "properties": {
        "@id": "node/296461972",
        "addr:conscriptionnumber": "1408",
        "addr:housenumber": "1408/11",
        "addr:postcode": "14900",
        "addr:street": "Ke Kateřinkám",
        "addr:streetnumber": "11",
        "source:addr": "uir_adr",
        "uir_adr:ADRESA_KOD": "21839611"
      },
      "geometry": {
        "type": "Point",
        "coordinates": [
          14.5164476,
          50.0226774
        ]
      },
      "id": "node/296461972"
    },
    {
      "type": "Feature",
      "properties": {
        "@id": "node/296462192",
        "addr:conscriptionnumber": "1107",
        "addr:housenumber": "1107/4",
        "addr:postcode": "14900",
        "addr:street": "Leopoldova",
        "addr:streetnumber": "4",
        "source:addr": "uir_adr",
        "uir_adr:ADRESA_KOD": "21838101"
      },
      "geometry": {
        "type": "Point",
        "coordinates": [
          14.5111906,
          50.0387947
        ]
      },
      "id": "node/296462192"
    },
    {
      "type": "Feature",
      "properties": {
        "@id": "node/296462361",
        "addr:conscriptionnumber": "2005",
        "addr:housenumber": "2005/7",
        "addr:postcode": "14800",
        "addr:street": "Dědinova",
        "addr:streetnumber": "7",
        "source:addr": "uir_adr",
        "uir_adr:ADRESA_KOD": "21845654"
      },
      "geometry": {
        "type": "Point",
        "coordinates": [
          14.4828422,
          50.0306663
        ]
      },
      "id": "node/296462361"
    },
    {
      "type": "Feature",
      "properties": {
        "@id": "node/296462890",
        "addr:conscriptionnumber": "261",
        "addr:housenumber": "261/12",
        "addr:postcode": "14900",
        "addr:street": "K dubu",
        "addr:streetnumber": "12",
        "source:addr": "uir_adr",
        "uir_adr:ADRESA_KOD": "21828857"
      },
      "geometry": {
        "type": "Point",
        "coordinates": [
          14.4974019,
          50.0319926
        ]
      },
      "id": "node/296462890"
    },
    {
      "type": "Feature",
      "properties": {
        "@id": "node/296463153",
        "addr:conscriptionnumber": "1992",
        "addr:housenumber": "1992/28",
        "addr:postcode": "14800",
        "addr:street": "Petýrkova",
        "addr:streetnumber": "28",
        "source:addr": "uir_adr",
        "uir_adr:ADRESA_KOD": "21845506"
      },
      "geometry": {
        "type": "Point",
        "coordinates": [
          14.4856936,
          50.031334
        ]
      },
      "id": "node/296463153"
    },
    {
      "type": "Feature",
      "properties": {
        "@id": "node/296463313",
        "addr:conscriptionnumber": "195",
        "addr:housenumber": "195/38",
        "addr:postcode": "14900",
        "addr:street": "Starochodovská",
        "addr:streetnumber": "38",
        "source:addr": "uir_adr",
        "uir_adr:ADRESA_KOD": "21828156"
      },
      "geometry": {
        "type": "Point",
        "coordinates": [
          14.5047911,
          50.0281686
        ]
      },
      "id": "node/296463313"
    },
    {
      "type": "Feature",
      "properties": {
        "@id": "node/296463347",
        "addr:conscriptionnumber": "897",
        "addr:housenumber": "897/59",
        "addr:postcode": "14900",
        "addr:street": "Malebná",
        "addr:streetnumber": "59",
        "source:addr": "uir_adr",
        "uir_adr:ADRESA_KOD": "21835764"
      },
      "geometry": {
        "type": "Point",
        "coordinates": [
          14.4971943,
          50.0307129
        ]
      },
      "id": "node/296463347"
    },
    {
      "type": "Feature",
      "properties": {
        "@id": "node/296463497",
        "addr:conscriptionnumber": "883",
        "addr:housenumber": "883/7",
        "addr:postcode": "14900",
        "addr:street": "Saudkova",
        "addr:streetnumber": "7",
        "source:addr": "uir_adr",
        "uir_adr:ADRESA_KOD": "21835616"
      },
      "geometry": {
        "type": "Point",
        "coordinates": [
          14.5050245,
          50.0312563
        ]
      },
      "id": "node/296463497"
    },
    {
      "type": "Feature",
      "properties": {
        "@id": "node/296463614",
        "addr:conscriptionnumber": "241",
        "addr:housenumber": "241/17",
        "addr:postcode": "14900",
        "addr:street": "Švabinského",
        "addr:streetnumber": "17",
        "source:addr": "uir_adr",
        "uir_adr:ADRESA_KOD": "21828610"
      },
      "geometry": {
        "type": "Point",
        "coordinates": [
          14.4990844,
          50.0312331
        ]
      },
      "id": "node/296463614"
    },
    {
      "type": "Feature",
      "properties": {
        "@id": "node/296463650",
        "addr:conscriptionnumber": "544",
        "addr:housenumber": "544",
        "addr:postcode": "14900",
        "addr:street": "Ženíškova",
        "source:addr": "uir_adr",
        "uir_adr:ADRESA_KOD": "21831866"
      },
      "geometry": {
        "type": "Point",
        "coordinates": [
          14.5100151,
          50.0337004
        ]
      },
      "id": "node/296463650"
    },
    {
      "type": "Feature",
      "properties": {
        "@id": "node/296463761",
        "addr:conscriptionnumber": "1962",
        "addr:housenumber": "1962/17",
        "addr:postcode": "14800",
        "addr:street": "Petýrkova",
        "addr:streetnumber": "17",
        "source:addr": "uir_adr",
        "uir_adr:ADRESA_KOD": "21845204"
      },
      "geometry": {
        "type": "Point",
        "coordinates": [
          14.4857665,
          50.0302605
        ]
      },
      "id": "node/296463761"
    },
    {
      "type": "Feature",
      "properties": {
        "@id": "node/296463900",
        "addr:conscriptionnumber": "287",
        "addr:housenumber": "287/47",
        "addr:postcode": "14900",
        "addr:street": "Švabinského",
        "addr:streetnumber": "47",
        "source:addr": "uir_adr",
        "uir_adr:ADRESA_KOD": "21829152"
      },
      "geometry": {
        "type": "Point",
        "coordinates": [
          14.5027049,
          50.0275768
        ]
      },
      "id": "node/296463900"
    },
    {
      "type": "Feature",
      "properties": {
        "@id": "node/296464075",
        "addr:conscriptionnumber": "1698",
        "addr:housenumber": "1698/9",
        "addr:postcode": "14900",
        "addr:street": "Benkova",
        "addr:streetnumber": "9",
        "source:addr": "uir_adr",
        "uir_adr:ADRESA_KOD": "21842540"
      },
      "geometry": {
        "type": "Point",
        "coordinates": [
          14.5007706,
          50.0355739
        ]
      },
      "id": "node/296464075"
    },
    {
      "type": "Feature",
      "properties": {
        "@id": "node/296464123",
        "addr:conscriptionnumber": "2176",
        "addr:housenumber": "2176/4",
        "addr:postcode": "14800",
        "addr:street": "Hrdličkova",
        "addr:streetnumber": "4",
        "source:addr": "uir_adr",
        "uir_adr:ADRESA_KOD": "21847339"
      },
      "geometry": {
        "type": "Point",
        "coordinates": [
          14.4842294,
          50.0356427
        ]
      },
      "id": "node/296464123"
    },
    {
      "type": "Feature",
      "properties": {
        "@id": "node/296464178",
        "addr:conscriptionnumber": "996",
        "addr:housenumber": "996/21",
        "addr:postcode": "14900",
        "addr:street": "Verdiho",
        "addr:streetnumber": "21",
        "source:addr": "uir_adr",
        "uir_adr:ADRESA_KOD": "21836949"
      },
      "geometry": {
        "type": "Point",
        "coordinates": [
          14.4956214,
          50.034277
        ]
      },
      "id": "node/296464178"
    },
    {
      "type": "Feature",
      "properties": {
        "@id": "node/296464226",
        "addr:conscriptionnumber": "715",
        "addr:housenumber": "715/52",
        "addr:postcode": "14900",
        "addr:street": "Medkova",
        "addr:streetnumber": "52",
        "source:addr": "uir_adr",
        "uir_adr:ADRESA_KOD": "21833796"
      },
      "geometry": {
        "type": "Point",
        "coordinates": [
          14.4987013,
          50.0299834
        ]
      },
      "id": "node/296464226"
    },
    {
      "type": "Feature",
      "properties": {
        "@id": "node/296464262",
        "addr:conscriptionnumber": "1581",
        "addr:housenumber": "1581/3",
        "addr:postcode": "14900",
        "addr:street": "Mikulova",
        "addr:streetnumber": "3",
        "source:addr": "uir_adr",
        "uir_adr:ADRESA_KOD": "21841357"
      },
      "geometry": {
        "type": "Point",
        "coordinates": [
          14.513735,
          50.0305698
        ]
      },
      "id": "node/296464262"
    },
    {
      "type": "Feature",
      "properties": {
        "@id": "node/296464349",
        "addr:conscriptionnumber": "1490",
        "addr:housenumber": "1490/32",
        "addr:place": "Chodov",
        "addr:postcode": "14900",
        "addr:street": "Konstantinova",
        "addr:streetnumber": "32",
        "ref:ruian:addr": "21840431"
      },
      "geometry": {
        "type": "Point",
        "coordinates": [
          14.5227408,
          50.0292974
        ]
      },
      "id": "node/296464349"
    },
    {
      "type": "Feature",
      "properties": {
        "@id": "node/296464422",
        "addr:conscriptionnumber": "623",
        "addr:housenumber": "623/64",
        "addr:postcode": "14900",
        "addr:street": "Medkova",
        "addr:streetnumber": "64",
        "source:addr": "uir_adr",
        "uir_adr:ADRESA_KOD": "21832820"
      },
      "geometry": {
        "type": "Point",
        "coordinates": [
          14.4998256,
          50.0288663
        ]
      },
      "id": "node/296464422"
    },
    {
      "type": "Feature",
      "properties": {
        "@id": "node/296464445",
        "addr:conscriptionnumber": "812",
        "addr:housenumber": "812/67",
        "addr:place": "Chodov",
        "addr:postcode": "14900",
        "addr:street": "Zakouřilova",
        "addr:streetnumber": "67",
        "ref:ruian:addr": "21834849"
      },
      "geometry": {
        "type": "Point",
        "coordinates": [
          14.4988522,
          50.0282314
        ]
      },
      "id": "node/296464445"
    },
    {
      "type": "Feature",
      "properties": {
        "@id": "node/296464556",
        "addr:conscriptionnumber": "1393",
        "addr:housenumber": "1393/10",
        "addr:place": "Chodov",
        "addr:postcode": "14900",
        "addr:street": "Ke Kateřinkám",
        "addr:streetnumber": "10",
        "ref:ruian:addr": "21839468"
      },
      "geometry": {
        "type": "Point",
        "coordinates": [
          14.5151819,
          50.0238306
        ]
      },
      "id": "node/296464556"
    },
    {
      "type": "Feature",
      "properties": {
        "@id": "node/296464571",
        "addr:conscriptionnumber": "211",
        "addr:housenumber": "211/69",
        "addr:postcode": "14900",
        "addr:street": "7. května",
        "addr:streetnumber": "69",
        "source:addr": "uir_adr",
        "uir_adr:ADRESA_KOD": "21828300"
      },
      "geometry": {
        "type": "Point",
        "coordinates": [
          14.4989665,
          50.0323208
        ]
      },
      "id": "node/296464571"
    },
    {
      "type": "Feature",
      "properties": {
        "@id": "node/296464637",
        "addr:conscriptionnumber": "2004",
        "addr:housenumber": "2004/5",
        "addr:postcode": "14800",
        "addr:street": "Dědinova",
        "addr:streetnumber": "5",
        "source:addr": "uir_adr",
        "uir_adr:ADRESA_KOD": "21845646"
      },
      "geometry": {
        "type": "Point",
        "coordinates": [
          14.4827306,
          50.030556
        ]
      },
      "id": "node/296464637"
    },
    {
      "type": "Feature",
      "properties": {
        "@id": "node/296465177",
        "addr:conscriptionnumber": "612",
        "addr:housenumber": "612/31",
        "addr:postcode": "14900",
        "addr:street": "Zakouřilova",
        "addr:streetnumber": "31",
        "source:addr": "uir_adr",
        "uir_adr:ADRESA_KOD": "21832676"
      },
      "geometry": {
        "type": "Point",
        "coordinates": [
          14.4961173,
          50.0310084
        ]
      },
      "id": "node/296465177"
    },
    {
      "type": "Feature",
      "properties": {
        "@id": "node/296465700",
        "addr:conscriptionnumber": "2066",
        "addr:housenumber": "2066/10",
        "addr:postcode": "14800",
        "addr:street": "Augustinova",
        "addr:streetnumber": "10",
        "source:addr": "uir_adr",
        "uir_adr:ADRESA_KOD": "21846251"
      },
      "geometry": {
        "type": "Point",
        "coordinates": [
          14.4806972,
          50.0321734
        ]
      },
      "id": "node/296465700"
    },
    {
      "type": "Feature",
      "properties": {
        "@id": "node/296465873",
        "addr:conscriptionnumber": "1856",
        "addr:housenumber": "1856/8",
        "addr:postcode": "14800",
        "addr:street": "Nechvílova",
        "addr:streetnumber": "8",
        "source:addr": "uir_adr",
        "uir_adr:ADRESA_KOD": "21844143"
      },
      "geometry": {
        "type": "Point",
        "coordinates": [
          14.4972385,
          50.0221321
        ]
      },
      "id": "node/296465873"
    },
    {
      "type": "Feature",
      "properties": {
        "@id": "node/296465909",
        "addr:conscriptionnumber": "1475",
        "addr:housenumber": "1475/12",
        "addr:postcode": "14900",
        "addr:street": "Konstantinova",
        "addr:streetnumber": "12",
        "source:addr": "uir_adr",
        "uir_adr:ADRESA_KOD": "21840288"
      },
      "geometry": {
        "type": "Point",
        "coordinates": [
          14.5228153,
          50.0281808
        ]
      },
      "id": "node/296465909"
    },
    {
      "type": "Feature",
      "properties": {
        "@id": "node/296466008",
        "addr:conscriptionnumber": "2161",
        "addr:housenumber": "2161/24",
        "addr:postcode": "14800",
        "addr:street": "Babákova",
        "addr:streetnumber": "24",
        "source:addr": "uir_adr",
        "uir_adr:ADRESA_KOD": "21847185"
      },
      "geometry": {
        "type": "Point",
        "coordinates": [
          14.4843295,
          50.0374937
        ]
      },
      "id": "node/296466008"
    }
  ]
}